0 EXPLORER 20
1 00870U 64051A   13282.46405547  .00000119  00000-0  85900-4 0  1283
2 00870 079.8961 276.4797 0097496 210.3901 264.5487 13.90816876489602
0 EXPLORER 20
1 00870U 64051A   13283.75933111  .00000107  00000-0  77092-4 0  1290
2 00870 079.8961 275.0720 0097530 206.9821 269.9268 13.90817180489788
0 EXPLORER 20
1 00870U 64051A   13286.12433586  .00000079  00000-0  55060-4 0  1317
2 00870 079.8962 272.5016 0097612 200.7744 231.3718 13.90817908490116
0 EXPLORER 20
1 00870U 64051A   13287.12660778  .00000082  00000-0  57448-4 0  1320
2 00870 079.8964 271.4122 0097645 198.1405 209.6955 13.90818143490252
0 EXPLORER 20
1 00870U 64051A   13288.13895163  .00000098  00000-0  69906-4 0  1330
2 00870 079.8966 270.3119 0097679 195.4779 238.4519 13.90818429490397
0 EXPLORER 20
1 00870U 64051A   13289.51342131  .00000088  00000-0  62135-4 0  1342
2 00870 079.8969 268.8180 0097718 191.8721 280.3481 13.90818693490589
0 EXPLORER 20
1 00870U 64051A   13290.59403448  .00000110  00000-0  79175-4 0  1350
2 00870 079.8971 267.6436 0097753 189.0400 290.9192 13.90818795490731
0 EXPLORER 20
1 00870U 64051A   13291.67352016  .00000124  00000-0  89834-4 0  1363
2 00870 079.8973 266.4705 0097793 186.2092 295.8472 13.90818851490883
0 EXPLORER 20
1 00870U 64051A   13292.75602242  .00000137  00000-0  99623-4 0  1374
2 00870 079.8974 265.2941 0097825 183.3663 315.8830 13.90818929491036
0 EXPLORER 20
1 00870U 64051A   13293.76177271  .00000144  00000-0  10484-3 0  1381
2 00870 079.8975 264.2012 0097841 180.7288 311.6219 13.90819123491174
0 EXPLORER 20
1 00870U 64051A   13295.11393291  .00000145  00000-0  10572-3 0  1394
2 00870 079.8975 262.7321 0097886 177.1869 241.8144 13.90819480491362
0 EXPLORER 20
1 00870U 64051A   13296.12460821  .00000134  00000-0  97084-4 0  1404
2 00870 079.8976 261.6339 0097931 174.5417 262.2089 13.90819792491508
